STARLINK-1044           
1 44749U 19074AN  21212.49096077  .00060697  00000-0  46666-3 0  9998
2 44749  53.0562 175.5567 0008722 277.5473  82.4554 15.71423476 95249
STARLINK-1046           
1 44751U 19074AQ  21212.54179808  .00000250  00000-0  35641-4 0  9992
2 44751  53.0540 218.0786 0000408  73.6932 286.4102 15.06384309 94650
STARLINK-1047           
1 44752U 19074AR  21212.36302212  .00000421  00000-0  47122-4 0  9997
2 44752  53.0525 198.8816 0000852  65.8459 294.2619 15.06390345 94908
STARLINK-1048           
1 44753U 19074AS  21212.30219162 -.00001144  00000-0 -57929-4 0  9994
2 44753  53.0562 179.1614 0000859  55.4110 304.6960 15.06398948 95176
STARLINK-1049           
1 44754U 19074AT  21212.30588340  .00000978  00000-0  84471-4 0  9996
2 44754  53.0525 179.1365 0000806  63.2927 296.8144 15.06410446 95178
STARLINK-1050           
1 44755U 19074AU  21212.42014286 -.00001536  00000-0 -84277-4 0  9990
2 44755  53.0536 218.6261 0000632  50.6509 309.4536 15.06388762 95180
STARLINK-1051           
1 44756U 19074AV  21212.32745030 -.00003837  00000-0 -24810-4 0  9991
2 44756  53.0520 152.8740 0001642  36.5584 323.5545 15.71449767 95545
STARLINK-1034           
1 44757U 19074AW  21212.44044533  .00000669  00000-0  63820-4 0  9997
2 44757  53.0527 198.5232 0000789  47.4723 312.6333 15.06391360 94910
STARLINK-1053           
1 44758U 19074AX  21212.44869488  .00000505  00000-0  52813-4 0  9991
2 44758  53.0524 218.4938 0001131  25.2124 334.8920 15.06385515 94647
STARLINK-1054           
1 44759U 19074AY  21212.50491376  .00000271  00000-0  37080-4 0  9995
2 44759  53.0537 218.2488 0000764  47.2318 312.8735 15.06389159 92297
STARLINK-1055           
1 44760U 19074AZ  21212.42383285 -.00001203  00000-0 -61925-4 0  9990
2 44760  53.0535 218.6173 0000438  45.2047 314.8977 15.06389120 94646
STARLINK-1056           
1 44761U 19074BA  21212.43490264  .00000188  00000-0  31502-4 0  9995
2 44761  53.0528 218.5646 0000582  59.1521 300.9525 15.06381899 94644
STARLINK-1057           
1 44762U 19074BB  21212.37040617  .00000406  00000-0  46116-4 0  9992
2 44762  53.0544 198.8530 0000745  52.5237 307.5820 15.06386223 94903
STARLINK-1058           
1 44763U 19074BC  21212.52335716 -.00001628  00000-0 -90479-4 0  9997
2 44763  53.0537 218.1627 0000513  74.8220 285.2826 15.06400304 94658
STARLINK-1059           
1 44764U 19074BD  21212.43304233 -.00001210  00000-0 -62361-4 0  9994
2 44764  53.0533 198.5716 0000733  47.0086 313.0965 15.06393860 94912
STARLINK-1060           
1 44765U 19074BE  21212.38513106  .00000368  00000-0  43555-4 0  9995
2 44765  53.0530 198.7825 0000789  50.3826 309.7233 15.06398655 94909
STARLINK-1061           
1 44766U 19074BF  21212.51601184 -.00000625  00000-0 -23074-4 0  9997
2 44766  53.0523 218.1972 0000820 107.3347 252.7732 15.06372056 94659
STARLINK-1062           
1 44767U 19074BG  21212.44227426  .00000254  00000-0  35915-4 0  9996
2 44767  53.0527 218.5289 0001143  53.5682 306.5413 15.06392304 94643
STARLINK-1063           
1 44768U 19074BH  21212.53073145  .00000406  00000-0  46118-4 0  9990
2 44768  53.0543 218.1332 0000509  60.5759 299.5281 15.06387743 94662
STARLINK-1064           
1 44769U 19074BJ  21212.45852144  .00002308  00000-0  17741-3 0  9998
2 44769  52.9998 218.4485 0000538  56.8662 303.2377 15.05597025 94710
STARLINK-1067           
1 44771U 19074BL  21212.45334933  .00000315  00000-0  40026-4 0  9991
2 44771  53.0549 218.4705 0000535  57.7477 302.3563 15.06392456 94644
STARLINK-1068           
1 44772U 19074BM  21212.24507030  .00000798  00000-0  72412-4 0  9998
2 44772  53.0535 199.4115 0000628  55.9276 304.1772 15.06403740 94880
JILIN-01 GAOFEN 2A      
1 44777U 19075A   21212.84661988  .00000888  00000-0  58905-4 0  9994
2 44777  97.4607 274.7359 0010398 274.8536 221.0419 15.09700864 94537
NINGXIA-1 1             
1 44779U 19076A   21212.47538452 -.00000118  00000-0  75830-5 0  9999
2 44779  45.0068 219.2494 0010248   0.3253 359.7589 14.01691121 87855
NINGXIA-1 2             
1 44780U 19076B   21212.46129660 -.00000099  00000-0  20444-4 0  9995
2 44780  45.0095 219.3004 0008388 354.5889   5.4856 14.01688266 87854
NINGXIA-1 3             
1 44781U 19076C   21212.44811907 -.00000100  00000-0  19139-4 0  9998
2 44781  45.0008 218.7931 0010087 342.7631  17.2863 14.01680408 87853
NINGXIA-1 4             
1 44782U 19076D   21212.43431802 -.00000121  00000-0  58245-5 0  9995
2 44782  45.0086 219.1219 0013814 332.8995  27.1125 14.01686390 87855
NINGXIA-1 5             
1 44783U 19076E   21212.42020638 -.00000130  00000-0 -27808-6 0  9999
2 44783  45.0064 218.9067 0012009 348.0994  11.9552 14.01673969 87856
KL-ALPHA A              
1 44785U 19077A   21212.47232384  .00000027  00000-0  21149-4 0  9993
2 44785  88.9114  59.1645 0009098 262.9735  97.0377 13.55787731 84294
KL-ALPHA B              
1 44786U 19077B   21212.51303870  .00000034  00000-0  31660-4 0  9995
2 44786  88.8962  59.3920 0025204 304.8987  54.9801 13.55765492 83759
RWASAT-1                
1 44790U 98067QV  21212.15616561  .00009743  00000-0  11951-3 0  9996
2 44790  51.6401  99.5150 0007408 101.0251  30.4717 15.61031715 96277
AQT-D                   
1 44791U 98067QW  21212.54290883  .00015287  00000-0  18222-3 0  9993
2 44791  51.6382  97.9732 0006175  76.4500 283.7181 15.61276155 96330
NARSSCUBE-1             
1 44792U 98067QX  21212.37436497  .00036342  00000-0  30707-3 0  9995
2 44792  51.6354  87.7105 0004104 104.1916 255.9538 15.69382251 96454
BEIDOU-3 M21            
1 44793U 19078A   21212.34072064 -.00000104  00000-0  10000-3 0  9996
2 44793  55.0510   1.6661 0006007  16.1310 250.0271  1.86232385 11467
BEIDOU-3 M22            
1 44794U 19078B   21212.55853698 -.00000104  00000-0  00000-0 0  9996
2 44794  55.0249   1.6572 0003950  19.4444 303.8178  1.86232840 11465
COSMOS 2542             
1 44797U 19079A   21212.72258100  .00025074  18794-5  38702-3 0  9995
2 44797  97.7384 273.5583 0388020  84.6439 279.8917 14.99564720 91368
TIBA-1                  
1 44800U 19080A   21212.49353418  .00000155  00000-0  00000-0 0  9990
2 44800   0.0516   1.1984 0002079 141.3862  19.8934  1.00269971  6191
INMARSAT GX5            
1 44801U 19080B   21212.34505862  .00000073  00000-0  00000-0 0  9996
2 44801   0.0361   2.3420 0002661 145.6499 296.3808  1.00273182  6245
CARTOSAT-3              
1 44804U 19081A   21212.49445764  .00000783  00000-0  40385-4 0  9992
2 44804  97.4430 274.6947 0011574 258.6166 226.2686 15.19229426 92903
MESHBED                 
1 44806U 19081C   21212.56229657  .00003110  00000-0  13986-3 0  9996
2 44806  97.4462 275.7699 0011891 265.8415  94.1462 15.21808656 93024
FLOCK 4P-10             
1 44808U 19081E   21212.39825114  .00001468  00000-0  67883-4 0  9999
2 44808  97.4461 275.7151 0011440 269.9363  90.0561 15.21715975 93010
FLOCK 4P-11             
1 44809U 19081F   21212.44946308  .00001441  00000-0  66691-4 0  9992
2 44809  97.4460 275.7818 0011419 268.9521  91.0406 15.21700396 93022
FLOCK 4P-12             
1 44810U 19081G   21212.57368571  .00001348  00000-0  62575-4 0  9991
2 44810  97.4459 275.9379 0011212 268.1951  91.8001 15.21710090 93049
FLOCK 4P-4              
1 44811U 19081H   21212.48673144  .00003132  00000-0  14133-3 0  9996
2 44811  97.4497 276.0692 0010315 257.3135 102.6948 15.21704076 93036
FLOCK 4P-3              
1 44812U 19081J   21212.61098238  .00002987  00000-0  13491-3 0  9990
2 44812  97.4494 276.2073 0010229 256.6997 103.3099 15.21712174 93056
FLOCK 4P-2              
1 44813U 19081K   21212.43516218  .00000263  00000-0  14701-4 0  9995
2 44813  97.4471 275.8831 0010010 259.0577 100.9533 15.21704081 93029
FLOCK 4P-1              
1 44814U 19081L   21212.55940938  .00001591  00000-0  73332-4 0  9999
2 44814  97.4471 276.0222 0009910 258.3039 101.7085 15.21709538 93044
FLOCK 4P-7              
1 44816U 19081N   21212.14306949  .00001487  00000-0  68759-4 0  9995
2 44816  97.4469 275.6504 0009484 261.1656  98.8506 15.21699933 92987
FLOCK 4P-5              
1 44818U 19081Q   21212.45738835  .00004240  00000-0  19018-3 0  9997
2 44818  97.4467 276.0030 0008950 261.7891  98.2329 15.21718094 93034
GAOFEN 12-1             
1 44819U 19082A   21212.45480982  .00000036  00000-0  11465-4 0  9994
2 44819  97.8836 233.9523 0002074  89.1236 271.0219 14.80269674 90455
ALE-2                   
1 44824U 19084A   21212.55065167  .00005657  00000-0  78830-4 0  9990
2 44824  96.9274  72.1461 0010915 198.6607 161.4251 15.57248829 93749
COSMOS 2543             
1 44835U 19079D   21212.69654417  .00000087  00000-0  15967-4 0  9997
2 44835  97.8210 266.8285 0009734 355.6506   4.4623 14.86347043 88963
JILIN-01 GAOFEN 2B      
1 44836U 19086A   21212.47790655  .00000673  00000-0  45566-4 0  9996
2 44836  97.4609 274.9476 0011396  13.9978 102.8827 15.09700753 90877
2019-087A               
1 44838U 19087A   21212.49005082  .00002390  00000-0  10459-3 0  9994
2 44838  97.4465   8.9239 0011382 319.6260 125.1252 15.22984042 91563
2019-087B               
1 44839U 19087B   21212.50750453  .00001548  00000-0  70085-4 0  9992
2 44839  97.4438   8.6217 0011466 320.9155 109.3510 15.22361644 91566
2019-087C               
1 44840U 19087C   21212.48103604  .00001678  00000-0  75115-4 0  9994
2 44840  97.4512   9.3609 0010894 324.2247 108.4963 15.22642462 91570
2019-087D               
1 44841U 19087D   21212.46317380  .00005163  00000-0  20778-3 0  9998
2 44841  97.4329   9.5067 0008577 313.6723 131.5317 15.25296754 91643
2019-087E               
1 44842U 19087E   21212.46256146  .00001824  00000-0  80780-4 0  9991
2 44842  97.4406   8.6622 0010273 325.8628 109.5145 15.22887241 91583
2019-087F               
1 44843U 19087F   21212.50262184  .00001361  00000-0  61462-4 0  9998
2 44843  97.4466   9.0719 0012353 334.5226 111.4266 15.22649483 91573
